CCSDS_OMM_VERS = 2.0
CREATION_DATE  = 
ORIGINATOR     = 

OBJECT_NAME    = SILVERSAT
OBJECT_ID      = 1998-067XV
CENTER_NAME    = EARTH
REF_FRAME      = TEME
TIME_SYSTEM    = UTC
MEAN_ELEMENT_THEORY = SGP/SGP4

EPOCH          = 2026-02-12T14:16:43.036320
MEAN_MOTION    = 15.64093554
ECCENTRICITY   = .00026079
INCLINATION    = 51.6262
RA_OF_ASC_NODE = 192.5841
ARG_OF_PERICENTER = 284.1277
MEAN_ANOMALY   = 75.9427

EPHEMERIS_TYPE = 0
CLASSIFICATION_TYPE = U
NORAD_CAT_ID   = 66909
ELEMENT_SET_NO = 999
REV_AT_EPOCH   = 1125
BSTAR          = .13123347E-2
MEAN_MOTION_DOT = .128314E-2
MEAN_MOTION_DDOT = 0

CCSDS_OMM_VERS = 2.0
CREATION_DATE  = 
ORIGINATOR     = 

OBJECT_NAME    = ISS OBJECT XW
OBJECT_ID      = 1998-067XW
CENTER_NAME    = EARTH
REF_FRAME      = TEME
TIME_SYSTEM    = UTC
MEAN_ELEMENT_THEORY = SGP/SGP4

EPOCH          = 2026-02-11T11:06:27.313632
MEAN_MOTION    = 15.62201503
ECCENTRICITY   = .00015189
INCLINATION    = 51.6249
RA_OF_ASC_NODE = 198.5199
ARG_OF_PERICENTER = 308.9215
MEAN_ANOMALY   = 51.1644

EPHEMERIS_TYPE = 0
CLASSIFICATION_TYPE = U
NORAD_CAT_ID   = 66910
ELEMENT_SET_NO = 999
REV_AT_EPOCH   = 1107
BSTAR          = .13239129E-2
MEAN_MOTION_DOT = .120044E-2
MEAN_MOTION_DDOT = 0

CCSDS_OMM_VERS = 2.0
CREATION_DATE  = 
ORIGINATOR     = 

OBJECT_NAME    = ISS OBJECT XX
OBJECT_ID      = 1998-067XX
CENTER_NAME    = EARTH
REF_FRAME      = TEME
TIME_SYSTEM    = UTC
MEAN_ELEMENT_THEORY = SGP/SGP4

EPOCH          = 2026-02-12T10:25:14.035008
MEAN_MOTION    = 15.65452637
ECCENTRICITY   = .0003296
INCLINATION    = 51.6233
RA_OF_ASC_NODE = 193.0014
ARG_OF_PERICENTER = 303.1833
MEAN_ANOMALY   = 56.8846

EPHEMERIS_TYPE = 0
CLASSIFICATION_TYPE = U
NORAD_CAT_ID   = 66911
ELEMENT_SET_NO = 999
REV_AT_EPOCH   = 1122
BSTAR          = .16656497E-2
MEAN_MOTION_DOT = .17303E-2
MEAN_MOTION_DDOT = 0

CCSDS_OMM_VERS = 2.0
CREATION_DATE  = 
ORIGINATOR     = 

OBJECT_NAME    = ISS OBJECT XY
OBJECT_ID      = 1998-067XY
CENTER_NAME    = EARTH
REF_FRAME      = TEME
TIME_SYSTEM    = UTC
MEAN_ELEMENT_THEORY = SGP/SGP4

EPOCH          = 2026-02-12T10:16:15.589344
MEAN_MOTION    = 15.59344133
ECCENTRICITY   = .00003542
INCLINATION    = 51.6279
RA_OF_ASC_NODE = 194.4731
ARG_OF_PERICENTER = 282.3599
MEAN_ANOMALY   = 77.7354

EPHEMERIS_TYPE = 0
CLASSIFICATION_TYPE = U
NORAD_CAT_ID   = 66912
ELEMENT_SET_NO = 999
REV_AT_EPOCH   = 1120
BSTAR          = .11011958E-2
MEAN_MOTION_DOT = .89002E-3
MEAN_MOTION_DDOT = 0

CCSDS_OMM_VERS = 2.0
CREATION_DATE  = 
ORIGINATOR     = 

OBJECT_NAME    = ISS OBJECT XZ
OBJECT_ID      = 1998-067XZ
CENTER_NAME    = EARTH
REF_FRAME      = TEME
TIME_SYSTEM    = UTC
MEAN_ELEMENT_THEORY = SGP/SGP4

EPOCH          = 2026-02-12T14:17:27.983328
MEAN_MOTION    = 15.49791484
ECCENTRICITY   = .00107487
INCLINATION    = 51.6301
RA_OF_ASC_NODE = 196.3375
ARG_OF_PERICENTER = 105.0508
MEAN_ANOMALY   = 255.1671

EPHEMERIS_TYPE = 0
CLASSIFICATION_TYPE = U
NORAD_CAT_ID   = 67683
ELEMENT_SET_NO = 999
REV_AT_EPOCH   = 89
BSTAR          = .66895905E-3
MEAN_MOTION_DOT = .377E-3
MEAN_MOTION_DDOT = 0

CCSDS_OMM_VERS = 2.0
CREATION_DATE  = 
ORIGINATOR     = 

OBJECT_NAME    = GXIBA-1
OBJECT_ID      = 1998-067YA
CENTER_NAME    = EARTH
REF_FRAME      = TEME
TIME_SYSTEM    = UTC
MEAN_ELEMENT_THEORY = SGP/SGP4

EPOCH          = 2026-02-12T14:13:56.307648
MEAN_MOTION    = 15.50501752
ECCENTRICITY   = .0012586
INCLINATION    = 51.6297
RA_OF_ASC_NODE = 196.3223
ARG_OF_PERICENTER = 99.3252
MEAN_ANOMALY   = 260.9160

EPHEMERIS_TYPE = 0
CLASSIFICATION_TYPE = U
NORAD_CAT_ID   = 67684
ELEMENT_SET_NO = 999
REV_AT_EPOCH   = 89
BSTAR          = .11543552E-2
MEAN_MOTION_DOT = .67373E-3
MEAN_MOTION_DDOT = 0

CCSDS_OMM_VERS = 2.0
CREATION_DATE  = 
ORIGINATOR     = 

OBJECT_NAME    = CORAL
OBJECT_ID      = 1998-067YB
CENTER_NAME    = EARTH
REF_FRAME      = TEME
TIME_SYSTEM    = UTC
MEAN_ELEMENT_THEORY = SGP/SGP4

EPOCH          = 2026-02-12T14:16:43.328352
MEAN_MOTION    = 15.49925601
ECCENTRICITY   = .00127015
INCLINATION    = 51.6301
RA_OF_ASC_NODE = 196.3344
ARG_OF_PERICENTER = 100.6852
MEAN_ANOMALY   = 259.5567

EPHEMERIS_TYPE = 0
CLASSIFICATION_TYPE = U
NORAD_CAT_ID   = 67685
ELEMENT_SET_NO = 999
REV_AT_EPOCH   = 89
BSTAR          = .76276128E-3
MEAN_MOTION_DOT = .43326E-3
MEAN_MOTION_DDOT = 0

CCSDS_OMM_VERS = 2.0
CREATION_DATE  = 
ORIGINATOR     = 

OBJECT_NAME    = ISS OBJECT YC
OBJECT_ID      = 1998-067YC
CENTER_NAME    = EARTH
REF_FRAME      = TEME
TIME_SYSTEM    = UTC
MEAN_ELEMENT_THEORY = SGP/SGP4

EPOCH          = 2026-02-12T14:16:08.502240
MEAN_MOTION    = 15.50064013
ECCENTRICITY   = .0007814
INCLINATION    = 51.6304
RA_OF_ASC_NODE = 196.3327
ARG_OF_PERICENTER = 76.0852
MEAN_ANOMALY   = 284.1006

EPHEMERIS_TYPE = 0
CLASSIFICATION_TYPE = U
NORAD_CAT_ID   = 67686
ELEMENT_SET_NO = 999
REV_AT_EPOCH   = 89
BSTAR          = .84990868E-3
MEAN_MOTION_DOT = .48506E-3
MEAN_MOTION_DDOT = 0

CCSDS_OMM_VERS = 2.0
CREATION_DATE  = 
ORIGINATOR     = 

OBJECT_NAME    = LEOPARD
OBJECT_ID      = 1998-067YD
CENTER_NAME    = EARTH
REF_FRAME      = TEME
TIME_SYSTEM    = UTC
MEAN_ELEMENT_THEORY = SGP/SGP4

EPOCH          = 2026-02-12T14:17:01.609728
MEAN_MOTION    = 15.49873136
ECCENTRICITY   = .00078904
INCLINATION    = 51.6306
RA_OF_ASC_NODE = 196.3363
ARG_OF_PERICENTER = 77.8067
MEAN_ANOMALY   = 282.3805

EPHEMERIS_TYPE = 0
CLASSIFICATION_TYPE = U
NORAD_CAT_ID   = 67687
ELEMENT_SET_NO = 999
REV_AT_EPOCH   = 81
BSTAR          = .73465264E-3
MEAN_MOTION_DOT = .41546E-3
MEAN_MOTION_DDOT = 0

CCSDS_OMM_VERS = 2.0
CREATION_DATE  = 
ORIGINATOR     = 

OBJECT_NAME    = ISS OBJECT YE
OBJECT_ID      = 1998-067YE
CENTER_NAME    = EARTH
REF_FRAME      = TEME
TIME_SYSTEM    = UTC
MEAN_ELEMENT_THEORY = SGP/SGP4

EPOCH          = 2026-02-12T14:16:19.421472
MEAN_MOTION    = 15.50003933
ECCENTRICITY   = .00077585
INCLINATION    = 51.6308
RA_OF_ASC_NODE = 196.3330
ARG_OF_PERICENTER = 76.7114
MEAN_ANOMALY   = 283.4740

EPHEMERIS_TYPE = 0
CLASSIFICATION_TYPE = U
NORAD_CAT_ID   = 67688
ELEMENT_SET_NO = 999
REV_AT_EPOCH   = 81
BSTAR          = .80286994E-3
MEAN_MOTION_DOT = .45681E-3
MEAN_MOTION_DDOT = 0

