SILVERSAT               
1 66909U 98067XV  26043.59494255  .00128314  00000+0  13123-2 0  9998
2 66909  51.6262 192.5841 0002607 284.1277  75.9427 15.64093554 11255
ISS OBJECT XW           
1 66910U 98067XW  26042.46281613  .00120044  00000+0  13239-2 0  9997
2 66910  51.6249 198.5199 0001518 308.9215  51.1644 15.62201503 11071
ISS OBJECT XX           
1 66911U 98067XX  26043.43419022  .00173030  00000+0  16656-2 0  9992
2 66911  51.6233 193.0014 0003296 303.1833  56.8846 15.65452637 11221
ISS OBJECT XY           
1 66912U 98067XY  26043.42795821  .00089002  00000+0  11012-2 0  9992
2 66912  51.6279 194.4731 0000354 282.3599  77.7354 15.59344133 11200
ISS OBJECT XZ           
1 67683U 98067XZ  26043.59546277  .00037700  00000+0  66896-3 0  9994
2 67683  51.6301 196.3375 0010748 105.0508 255.1671 15.49791484   897
GXIBA-1                 
1 67684U 98067YA  26043.59301282  .00067373  00000+0  11544-2 0  9998
2 67684  51.6297 196.3223 0012586  99.3252 260.9160 15.50501752   893
CORAL                   
1 67685U 98067YB  26043.59494593  .00043326  00000+0  76276-3 0  9993
2 67685  51.6301 196.3344 0012701 100.6852 259.5567 15.49925601   891
ISS OBJECT YC           
1 67686U 98067YC  26043.59454285  .00048506  00000+0  84991-3 0  9996
2 67686  51.6304 196.3327 0007814  76.0852 284.1006 15.50064013   896
LEOPARD                 
1 67687U 98067YD  26043.59515752  .00041546  00000+0  73465-3 0  9995
2 67687  51.6306 196.3363 0007890  77.8067 282.3805 15.49873136   811
ISS OBJECT YE           
1 67688U 98067YE  26043.59466923  .00045681  00000+0  80287-3 0  9995
2 67688  51.6308 196.3330 0007758  76.7114 283.4740 15.50003933   814
